ATLAS CENTAUR 2         
1 00694U 63047A   25360.65388926  .00002053  00000+0  23936-3 0  9997
2 00694  30.3527 243.7345 0548645 156.7473 205.8970 14.11818881121291
THOR AGENA D R/B        
1 00733U 64002A   25360.60786347  .00000233  00000+0  10011-3 0  9995
2 00733  99.1220   4.9765 0033834 110.6212 249.8605 14.33967518227825
SL-3 R/B                
1 00877U 64053B   25360.60222234  .00000213  00000+0  65828-4 0  9995
2 00877  65.0748 185.4979 0075033 315.7835  43.7284 14.61285710256115
SL-8 R/B                
1 02802U 67045B   25360.49563470  .00000484  00000+0  14163-3 0  9991
2 02802  74.0110 124.7767 0063606 150.6890 209.7861 14.45551014 78447
SL-8 R/B                
1 03230U 68040B   25360.62233701  .00004083  00000+0  30729-3 0  9994
2 03230  74.0312 102.9241 0026135 302.2866  57.5790 15.02622001 79031
OAO 2                   
1 03597U 68110A   25360.58595780  .00000289  00000+0  83012-4 0  9999
2 03597  34.9947 313.3632 0005786 325.0292  35.0019 14.47252436  8501
ISIS 1                  
1 03669U 69009A   25360.42554096  .00000301  00000+0  21621-3 0  9997
2 03669  88.4493 163.2993 1707117 237.0397 105.5087 11.30360914340258
SERT 2                  
1 04327U 70009A   25360.60007703  .00000062  00000+0  14193-3 0  9999
2 04327  99.2671 302.7283 0004956   1.9427 171.3812 13.58719916769964
SL-3 R/B                
1 05118U 71028B   25360.57653656  .00034676  00000+0  50609-3 0  9990
2 05118  81.2382 141.9267 0019052 190.8051 169.2793 15.55281817977285
ASTEX 1                 
1 05560U 71089A   25360.63875316  .00000592  00000+0  15098-3 0  9997
2 05560  92.7149 128.1168 0014567 339.3266  20.7349 14.50658892851717
SL-8 R/B                
1 05730U 71119B   25360.62065854  .00012473  00000+0  64788-3 0  9998
2 05730  73.8894 312.1179 0558239 293.5975  60.7510 14.36067025644997
OAO 3 (COPERNICUS)      
1 06153U 72065A   25360.37351095  .00000442  00000+0  95294-4 0  9996
2 06153  35.0071 355.0017 0007217 279.1236 238.2982 14.59918124835476
