CCSDS_OMM_VERS = 2.0
CREATION_DATE  = 
ORIGINATOR     = 

OBJECT_NAME    = ATLAS CENTAUR 2
OBJECT_ID      = 1963-047A
CENTER_NAME    = EARTH
REF_FRAME      = TEME
TIME_SYSTEM    = UTC
MEAN_ELEMENT_THEORY = SGP/SGP4

EPOCH          = 2025-12-26T15:41:36.032064
MEAN_MOTION    = 14.11818881
ECCENTRICITY   = .05486453
INCLINATION    = 30.3527
RA_OF_ASC_NODE = 243.7345
ARG_OF_PERICENTER = 156.7473
MEAN_ANOMALY   = 205.8970

EPHEMERIS_TYPE = 0
CLASSIFICATION_TYPE = U
NORAD_CAT_ID   = 694
ELEMENT_SET_NO = 999
REV_AT_EPOCH   = 12129
BSTAR          = .23936009E-3
MEAN_MOTION_DOT = .2053E-4
MEAN_MOTION_DDOT = 0

CCSDS_OMM_VERS = 2.0
CREATION_DATE  = 
ORIGINATOR     = 

OBJECT_NAME    = THOR AGENA D R/B
OBJECT_ID      = 1964-002A
CENTER_NAME    = EARTH
REF_FRAME      = TEME
TIME_SYSTEM    = UTC
MEAN_ELEMENT_THEORY = SGP/SGP4

EPOCH          = 2025-12-26T14:35:19.403808
MEAN_MOTION    = 14.33967518
ECCENTRICITY   = .00338346
INCLINATION    = 99.1220
RA_OF_ASC_NODE = 4.9765
ARG_OF_PERICENTER = 110.6212
MEAN_ANOMALY   = 249.8605

EPHEMERIS_TYPE = 0
CLASSIFICATION_TYPE = U
NORAD_CAT_ID   = 733
ELEMENT_SET_NO = 999
REV_AT_EPOCH   = 22782
BSTAR          = .10011403E-3
MEAN_MOTION_DOT = .233E-5
MEAN_MOTION_DDOT = 0

CCSDS_OMM_VERS = 2.0
CREATION_DATE  = 
ORIGINATOR     = 

OBJECT_NAME    = SL-3 R/B
OBJECT_ID      = 1964-053B
CENTER_NAME    = EARTH
REF_FRAME      = TEME
TIME_SYSTEM    = UTC
MEAN_ELEMENT_THEORY = SGP/SGP4

EPOCH          = 2025-12-26T14:27:12.010176
MEAN_MOTION    = 14.61285710
ECCENTRICITY   = .00750332
INCLINATION    = 65.0748
RA_OF_ASC_NODE = 185.4979
ARG_OF_PERICENTER = 315.7835
MEAN_ANOMALY   = 43.7284

EPHEMERIS_TYPE = 0
CLASSIFICATION_TYPE = U
NORAD_CAT_ID   = 877
ELEMENT_SET_NO = 999
REV_AT_EPOCH   = 25611
BSTAR          = .6582759E-4
MEAN_MOTION_DOT = .213E-5
MEAN_MOTION_DDOT = 0

CCSDS_OMM_VERS = 2.0
CREATION_DATE  = 
ORIGINATOR     = 

OBJECT_NAME    = SL-8 R/B
OBJECT_ID      = 1967-045B
CENTER_NAME    = EARTH
REF_FRAME      = TEME
TIME_SYSTEM    = UTC
MEAN_ELEMENT_THEORY = SGP/SGP4

EPOCH          = 2025-12-26T11:53:42.838080
MEAN_MOTION    = 14.45551014
ECCENTRICITY   = .00636069
INCLINATION    = 74.0110
RA_OF_ASC_NODE = 124.7767
ARG_OF_PERICENTER = 150.6890
MEAN_ANOMALY   = 209.7861

EPHEMERIS_TYPE = 0
CLASSIFICATION_TYPE = U
NORAD_CAT_ID   = 2802
ELEMENT_SET_NO = 999
REV_AT_EPOCH   = 7844
BSTAR          = .14163033E-3
MEAN_MOTION_DOT = .484E-5
MEAN_MOTION_DDOT = 0

CCSDS_OMM_VERS = 2.0
CREATION_DATE  = 
ORIGINATOR     = 

OBJECT_NAME    = SL-8 R/B
OBJECT_ID      = 1968-040B
CENTER_NAME    = EARTH
REF_FRAME      = TEME
TIME_SYSTEM    = UTC
MEAN_ELEMENT_THEORY = SGP/SGP4

EPOCH          = 2025-12-26T14:56:09.917664
MEAN_MOTION    = 15.02622001
ECCENTRICITY   = .00261357
INCLINATION    = 74.0312
RA_OF_ASC_NODE = 102.9241
ARG_OF_PERICENTER = 302.2866
MEAN_ANOMALY   = 57.5790

EPHEMERIS_TYPE = 0
CLASSIFICATION_TYPE = U
NORAD_CAT_ID   = 3230
ELEMENT_SET_NO = 999
REV_AT_EPOCH   = 7903
BSTAR          = .30728667E-3
MEAN_MOTION_DOT = .4083E-4
MEAN_MOTION_DDOT = 0

CCSDS_OMM_VERS = 2.0
CREATION_DATE  = 
ORIGINATOR     = 

OBJECT_NAME    = OAO 2
OBJECT_ID      = 1968-110A
CENTER_NAME    = EARTH
REF_FRAME      = TEME
TIME_SYSTEM    = UTC
MEAN_ELEMENT_THEORY = SGP/SGP4

EPOCH          = 2025-12-26T14:03:46.753920
MEAN_MOTION    = 14.47252436
ECCENTRICITY   = .00057868
INCLINATION    = 34.9947
RA_OF_ASC_NODE = 313.3632
ARG_OF_PERICENTER = 325.0292
MEAN_ANOMALY   = 35.0019

EPHEMERIS_TYPE = 0
CLASSIFICATION_TYPE = U
NORAD_CAT_ID   = 3597
ELEMENT_SET_NO = 999
REV_AT_EPOCH   = 850
BSTAR          = .83011678E-4
MEAN_MOTION_DOT = .289E-5
MEAN_MOTION_DDOT = 0

CCSDS_OMM_VERS = 2.0
CREATION_DATE  = 
ORIGINATOR     = 

OBJECT_NAME    = ISIS 1
OBJECT_ID      = 1969-009A
CENTER_NAME    = EARTH
REF_FRAME      = TEME
TIME_SYSTEM    = UTC
MEAN_ELEMENT_THEORY = SGP/SGP4

EPOCH          = 2025-12-26T10:12:46.738944
MEAN_MOTION    = 11.30360914
ECCENTRICITY   = .17071171
INCLINATION    = 88.4493
RA_OF_ASC_NODE = 163.2993
ARG_OF_PERICENTER = 237.0397
MEAN_ANOMALY   = 105.5087

EPHEMERIS_TYPE = 0
CLASSIFICATION_TYPE = U
NORAD_CAT_ID   = 3669
ELEMENT_SET_NO = 999
REV_AT_EPOCH   = 34025
BSTAR          = .21620882E-3
MEAN_MOTION_DOT = .301E-5
MEAN_MOTION_DDOT = 0

CCSDS_OMM_VERS = 2.0
CREATION_DATE  = 
ORIGINATOR     = 

OBJECT_NAME    = SERT 2
OBJECT_ID      = 1970-009A
CENTER_NAME    = EARTH
REF_FRAME      = TEME
TIME_SYSTEM    = UTC
MEAN_ELEMENT_THEORY = SGP/SGP4

EPOCH          = 2025-12-26T14:24:06.655392
MEAN_MOTION    = 13.58719916
ECCENTRICITY   = .00049564
INCLINATION    = 99.2671
RA_OF_ASC_NODE = 302.7283
ARG_OF_PERICENTER = 1.9427
MEAN_ANOMALY   = 171.3812

EPHEMERIS_TYPE = 0
CLASSIFICATION_TYPE = U
NORAD_CAT_ID   = 4327
ELEMENT_SET_NO = 999
REV_AT_EPOCH   = 76996
BSTAR          = .14193036E-3
MEAN_MOTION_DOT = .62E-6
MEAN_MOTION_DDOT = 0

CCSDS_OMM_VERS = 2.0
CREATION_DATE  = 
ORIGINATOR     = 

OBJECT_NAME    = SL-3 R/B
OBJECT_ID      = 1971-028B
CENTER_NAME    = EARTH
REF_FRAME      = TEME
TIME_SYSTEM    = UTC
MEAN_ELEMENT_THEORY = SGP/SGP4

EPOCH          = 2025-12-26T13:50:12.758784
MEAN_MOTION    = 15.55281817
ECCENTRICITY   = .00190521
INCLINATION    = 81.2382
RA_OF_ASC_NODE = 141.9267
ARG_OF_PERICENTER = 190.8051
MEAN_ANOMALY   = 169.2793

EPHEMERIS_TYPE = 0
CLASSIFICATION_TYPE = U
NORAD_CAT_ID   = 5118
ELEMENT_SET_NO = 999
REV_AT_EPOCH   = 97728
BSTAR          = .5060914E-3
MEAN_MOTION_DOT = .34676E-3
MEAN_MOTION_DDOT = 0

CCSDS_OMM_VERS = 2.0
CREATION_DATE  = 
ORIGINATOR     = 

OBJECT_NAME    = ASTEX 1
OBJECT_ID      = 1971-089A
CENTER_NAME    = EARTH
REF_FRAME      = TEME
TIME_SYSTEM    = UTC
MEAN_ELEMENT_THEORY = SGP/SGP4

EPOCH          = 2025-12-26T15:19:48.273024
MEAN_MOTION    = 14.50658892
ECCENTRICITY   = .00145672
INCLINATION    = 92.7149
RA_OF_ASC_NODE = 128.1168
ARG_OF_PERICENTER = 339.3266
MEAN_ANOMALY   = 20.7349

EPHEMERIS_TYPE = 0
CLASSIFICATION_TYPE = U
NORAD_CAT_ID   = 5560
ELEMENT_SET_NO = 999
REV_AT_EPOCH   = 85171
BSTAR          = .15097503E-3
MEAN_MOTION_DOT = .592E-5
MEAN_MOTION_DDOT = 0

CCSDS_OMM_VERS = 2.0
CREATION_DATE  = 
ORIGINATOR     = 

OBJECT_NAME    = SL-8 R/B
OBJECT_ID      = 1971-119B
CENTER_NAME    = EARTH
REF_FRAME      = TEME
TIME_SYSTEM    = UTC
MEAN_ELEMENT_THEORY = SGP/SGP4

EPOCH          = 2025-12-26T14:53:44.897856
MEAN_MOTION    = 14.36067025
ECCENTRICITY   = .05582397
INCLINATION    = 73.8894
RA_OF_ASC_NODE = 312.1179
ARG_OF_PERICENTER = 293.5975
MEAN_ANOMALY   = 60.7510

EPHEMERIS_TYPE = 0
CLASSIFICATION_TYPE = U
NORAD_CAT_ID   = 5730
ELEMENT_SET_NO = 999
REV_AT_EPOCH   = 64499
BSTAR          = .64788414E-3
MEAN_MOTION_DOT = .12473E-3
MEAN_MOTION_DDOT = 0

CCSDS_OMM_VERS = 2.0
CREATION_DATE  = 
ORIGINATOR     = 

OBJECT_NAME    = OAO 3 (COPERNICUS)
OBJECT_ID      = 1972-065A
CENTER_NAME    = EARTH
REF_FRAME      = TEME
TIME_SYSTEM    = UTC
MEAN_ELEMENT_THEORY = SGP/SGP4

EPOCH          = 2025-12-26T08:57:51.346080
MEAN_MOTION    = 14.59918124
ECCENTRICITY   = .00072173
INCLINATION    = 35.0071
RA_OF_ASC_NODE = 355.0017
ARG_OF_PERICENTER = 279.1236
MEAN_ANOMALY   = 238.2982

EPHEMERIS_TYPE = 0
CLASSIFICATION_TYPE = U
NORAD_CAT_ID   = 6153
ELEMENT_SET_NO = 999
REV_AT_EPOCH   = 83547
BSTAR          = .95294182E-4
MEAN_MOTION_DOT = .442E-5
MEAN_MOTION_DDOT = 0

